{"type":"FeatureCollection","name":"kenya_wards","crs":{"type":"name","properties":{"name":"urn:ogc:def:crs:OGC:1.3:CRS84"}},"features":[{"type":"Feature","properties":{"ward_code":"TcWlRA6LpLB","ward":"Syokimau-mulolongo Ward","subcounty":"Athi River Sub County","subcounty_code":"BxfsSc6Svrc","county":"Machakos","county_code":16,"population":42154},"geometry":{"type":"Polygon","coordinates":[[[36.950176,-1.400015],[36.950211,-1.400058],[36.950209,-1.400012],[36.950176,-1.400015]]]}},{"type":"Feature","properties":{"ward_code":"nNiOxPPdyhk","ward":"Lwandanyi Ward","subcounty":"Sirisia Sub County","subcounty_code":"whWfFA9D7td","county":"Bungoma","county_code":39,"population":39802},"geometry":{"type":"Polygon","coordinates":[[[34.394105,0.756999],[34.394227,0.756978],[34.394226,0.756993],[34.394067,0.757034],[34.393899,0.757078],[34.393819,0.757088],[34.394061,0.757012],[34.394105,0.756999]]]}},{"type":"Feature","properties":{"ward_code":"ONNWmIVc48N","ward":"Kanyasa Ward","subcounty":"Nyatike Sub County","subcounty_code":"D2lsuEzZAJP","county":"Migori","county_code":44,"population":14331},"geometry":{"type":"Polygon","coordinates":[[[34.176331,-0.770567],[34.176454,-0.770648],[34.176331,-0.770567],[34.175972,-0.770388],[34.175972,-0.770388],[34.176331,-0.770567]]]}},{"type":"Feature","properties":{"ward_code":"kTPK3jU6vdp","ward":"Mitamboni Ward","subcounty":"Kathiani Sub County","subcounty_code":"iCey76HYgLP","county":"Machakos","county_code":16,"population":30055},"geometry":{"type":"Polygon","coordinates":[[[37.281579,-1.338664],[37.28158,-1.338672],[37.281582,-1.33867],[37.281579,-1.338664]]]}},{"type":"Feature","properties":{"ward_code":"UMeXjZoZxct","ward":"Matayos South Ward","subcounty":"Matayos Sub County","subcounty_code":"tvkI2HSIRW9","county":"Busia","county_code":40,"population":30874},"geometry":{"type":"Polygon","coordinates":[[[34.20656,0.376353],[34.206561,0.376364],[34.206561,0.376367],[34.206561,0.376382],[34.206553,0.376369],[34.206552,0.376368],[34.206542,0.376353],[34.20656,0.376353]]]}},{"type":"Feature","properties":{"ward_code":"Yh0tdzyDjHY","ward":"Charagita Ward","subcounty":"Oljoroorok Sub County","subcounty_code":"fVSw60UAC3W","county":"NYANDARUA","county_code":18,"population":21824},"geometry":{"type":"Polygon","coordinates":[[[36.252875,-0.174707],[36.25292,-0.174964],[36.252918,-0.174932],[36.25288,-0.17471],[36.252873,-0.174117],[36.252869,-0.173994],[36.252861,-0.173758],[36.252875,-0.174707]]]}},{"type":"Feature","properties":{"ward_code":"SRbWfuqghtn","ward":"Mboghoni Ward","subcounty":"Taveta Sub County","subcounty_code":"jNzRdAwjaQ1","county":"TAITA TAVETA","county_code":6,"population":20648},"geometry":{"type":"Polygon","coordinates":[[[37.691742,-3.44246],[37.692004,-3.44358],[37.693879,-3.440441],[37.694809,-3.439525],[37.694813,-3.439659],[37.696939,-3.437564],[37.698796,-3.436341],[37.698829,-3.436319],[37.701522,-3.436881],[37.701543,-3.436589],[37.701224,-3.436316],[37.700131,-3.436133],[37.699994,-3.435724],[37.69963,-3.434722],[37.699721,-3.434312],[37.69922,-3.432718],[37.69919,-3.432489],[37.699186,-3.432461],[37.698992,-3.430988],[37.699179,-3.430375],[37.699179,-3.430375],[37.699311,-3.42994],[37.700905,-3.429667],[37.701998,-3.428893],[37.70259,-3.428073],[37.701361,-3.424385],[37.701452,-3.423656],[37.702135,-3.422336],[37.702772,-3.421698],[37.702955,-3.420423],[37.703091,-3.419649],[37.704275,-3.418966],[37.704492,-3.418659],[37.704822,-3.418192],[37.70423,-3.417918],[37.703,-3.416325],[37.702955,-3.413592],[37.701998,-3.413183],[37.70127,-3.413183],[37.701042,-3.412499],[37.700313,-3.41173],[37.700222,-3.411634],[37.700222,-3.411574],[37.698958,-3.409946],[37.698951,-3.409961],[37.698891,-3.410003],[37.698806,-3.410015],[37.698678,-3.410041],[37.698616,-3.410108],[37.698569,-3.410107],[37.698466,-3.410036],[37.698375,-3.409955],[37.698315,-3.409897],[37.698218,-3.409813],[37.69816,-3.409847],[37.698105,-3.409891],[37.698042,-3.409917],[37.698026,-3.409939],[37.698033,-3.40999],[37.698036,-3.410097],[37.698003,-3.410189],[37.697874,-3.410376],[37.697821,-3.410516],[37.6977,-3.410588],[37.697525,-3.410607],[37.697444,-3.410706],[37.697407,-3.41086],[37.697372,-3.410949],[37.697307,-3.411003],[37.697225,-3.411015],[37.697156,-3.410947],[37.697114,-3.410927],[37.697021,-3.410934],[37.696979,-3.410921],[37.696802,-3.410834],[37.696642,-3.410823],[37.696552,-3.410869],[37.696548,-3.410924],[37.696575,-3.410984],[37.6966,-3.41105],[37.696649,-3.411165],[37.69672,-3.411289],[37.696771,-3.411452],[37.696766,-3.411614],[37.696715,-3.411682],[37.696601,-3.411737],[37.696453,-3.411784],[37.696315,-3.411845],[37.696324,-3.411817],[37.696226,-3.411666],[37.696242,-3.411525],[37.696293,-3.41142],[37.696296,-3.411315],[37.696246,-3.411196],[37.696196,-3.411174],[37.696164,-3.411148],[37.696122,-3.411101],[37.696093,-3.411053],[37.696077,-3.411057],[37.696034,-3.411068],[37.695938,-3.411093],[37.695872,-3.411149],[37.695852,-3.411253],[37.69585,-3.411334],[37.695874,-3.411503],[37.695909,-3.411611],[37.695972,-3.411656],[37.695995,-3.4117],[37.695988,-3.411773],[37.695944,-3.411838],[37.695901,-3.4119],[37.695916,-3.411992],[37.695912,-3.412044],[37.69588,-3.412095],[37.695823,-3.412136],[37.695785,-3.412163],[37.69578,-3.412212],[37.695773,-3.412238],[37.695753,-3.412277],[37.695707,-3.412346],[37.695722,-3.412382],[37.695766,-3.41242],[37.6958,-3.412444],[37.695842,-3.412481],[37.695843,-3.412498],[37.69578,-3.41254],[37.695645,-3.412576],[37.69559,-3.412604],[37.695541,-3.412647],[37.695513,-3.412693],[37.695525,-3.412803],[37.695508,-3.412928],[37.695445,-3.413],[37.695387,-3.413091],[37.695429,-3.413178],[37.695524,-3.413268],[37.695541,-3.413269],[37.695606,-3.413287],[37.695623,-3.413327],[37.695615,-3.41339],[37.695579,-3.413418],[37.695506,-3.413413],[37.695466,-3.41338],[37.695418,-3.413369],[37.695386,-3.413394],[37.695388,-3.41344],[37.695396,-3.413575],[37.695368,-3.414066],[37.695341,-3.414434],[37.69534,-3.414447],[37.695315,-3.414792],[37.695288,-3.41491],[37.695237,-3.41499],[37.695164,-3.415075],[37.695099,-3.415124],[37.695016,-3.415157],[37.694921,-3.415196],[37.693307,-3.415851],[37.691978,-3.416385],[37.69023,-3.413787],[37.689165,-3.412191],[37.688668,-3.411447],[37.688685,-3.411309],[37.688699,-3.41118],[37.688811,-3.410985],[37.689173,-3.411025],[37.689623,-3.411075],[37.690376,-3.411174],[37.69108,-3.411291],[37.691197,-3.4113],[37.691502,-3.411285],[37.691799,-3.411271],[37.692107,-3.411238],[37.692387,-3.411193],[37.692563,-3.411177],[37.692721,-3.411205],[37.69303,-3.411293],[37.693094,-3.411168],[37.693172,-3.410922],[37.693201,-3.410785],[37.693211,-3.410686],[37.693228,-3.41053],[37.693257,-3.410344],[37.69329,-3.410121],[37.693291,-3.410114],[37.693266,-3.410027],[37.693155,-3.408874],[37.693034,-3.408404],[37.693027,-3.408183],[37.693059,-3.407815],[37.693089,-3.407497],[37.693101,-3.407333],[37.693081,-3.407204],[37.693005,-3.40698],[37.692846,-3.406643],[37.692776,-3.406481],[37.692774,-3.406215],[37.692799,-3.405805],[37.692802,-3.405368],[37.692733,-3.405089],[37.692719,-3.405056],[37.692591,-3.40476],[37.69251,-3.404557],[37.692427,-3.404492],[37.692424,-3.404489],[37.692275,-3.404332],[37.692181,-3.4042],[37.69204,-3.403967],[37.691886,-3.403712],[37.691689,-3.403414],[37.691598,-3.403276],[37.691437,-3.403016],[37.691189,-3.402638],[37.69112,-3.402499],[37.691065,-3.402379],[37.690949,-3.402177],[37.690807,-3.401973],[37.6907,-3.401816],[37.690609,-3.401656],[37.690516,-3.401471],[37.690479,-3.4014],[37.690407,-3.401289],[37.690313,-3.401174],[37.690286,-3.401142],[37.69015,-3.400941],[37.689991,-3.400698],[37.68985,-3.400482],[37.689801,-3.400368],[37.689759,-3.400263],[37.689721,-3.400176],[37.689641,-3.400079],[37.689483,-3.399975],[37.689342,-3.399891],[37.689164,-3.399763],[37.689122,-3.399732],[37.688694,-3.399794],[37.688175,-3.399806],[37.685463,-3.399858],[37.684738,-3.399872],[37.68388,-3.399885],[37.683843,-3.399885],[37.681876,-3.399708],[37.681726,-3.399647],[37.681575,-3.399565],[37.681477,-3.3995],[37.681406,-3.399454],[37.681299,-3.399396],[37.681273,-3.399407],[37.681195,-3.399439],[37.680999,-3.399536],[37.680797,-3.399634],[37.680604,-3.399718],[37.680604,-3.399727],[37.680603,-3.399932],[37.680585,-3.400063],[37.680524,-3.400326],[37.680433,-3.400695],[37.680364,-3.400968],[37.680277,-3.401285],[37.680191,-3.401599],[37.680111,-3.401882],[37.680057,-3.402064],[37.680051,-3.402064],[37.680015,-3.402066],[37.680075,-3.402615],[37.680271,-3.402601],[37.680231,-3.405827],[37.68021,-3.408189],[37.680147,-3.41524],[37.680146,-3.415447],[37.680292,-3.41556],[37.682035,-3.416907],[37.686506,-3.422855],[37.68749,-3.424165],[37.688687,-3.429316],[37.688835,-3.429952],[37.691742,-3.44246]]]}},{"type":"Feature","properties":{"ward_code":"VG4qlKr4Z2A","ward":"Malaba South Ward","subcounty":"Teso North Sub County","subcounty_code":"GpEIlwz3FvT","county":"Busia","county_code":40,"population":19250},"geometry":{"type":"Polygon","coordinates":[[[34.324404,0.611056],[34.324408,0.611041],[34.324411,0.611054],[34.324404,0.611056]]]}},{"type":"Feature","properties":{"ward_code":"xPmSqaPoPFT","ward":"Amukura East Ward","subcounty":"Teso South Sub County","subcounty_code":"EhchjCHkhJ9","county":"Busia","county_code":40,"population":23357},"geometry":{"type":"Polygon","coordinates":[[[34.280778,0.499482],[34.280779,0.499479],[34.280779,0.499479],[34.280779,0.499482],[34.280778,0.499482]]]}},{"type":"Feature","properties":{"ward_code":"VAOZFeKsbAT","ward":"Amukura Central Ward","subcounty":"Teso South Sub County","subcounty_code":"EhchjCHkhJ9","county":"Busia","county_code":40,"population":20756},"geometry":{"type":"Polygon","coordinates":[[[34.284559,0.50931],[34.284568,0.509307],[34.284571,0.509306],[34.284569,0.509308],[34.284565,0.509313],[34.284559,0.50931]]]}},{"type":"Feature","properties":{"ward_code":"TaCopZQ4jLn","ward":"Njoro Ward","subcounty":"Njoro  Sub County","subcounty_code":"gSJXzH1DM75","county":"Nakuru","county_code":32,"population":57429},"geometry":{"type":"Polygon","coordinates":[[[35.943411,-0.31652],[35.943461,-0.316522],[35.943415,-0.316515],[35.94341,-0.316515],[35.943411,-0.31652]]]}},{"type":"Feature","properties":{"ward_code":"l7oNy9qaqWe","ward":"Mai Mahiu Ward","subcounty":"Naivasha  Sub County","subcounty_code":"yZJJPoSGhY6","county":"Nakuru","county_code":32,"population":29796},"geometry":{"type":"Polygon","coordinates":[[[36.574754,-0.967389],[36.574829,-0.967432],[36.574781,-0.967397],[36.574754,-0.967389]]]}},{"type":"Feature","properties":{"ward_code":"hV1NZb8gSOe","ward":"Nachola Ward","subcounty":"Samburu North Sub County","subcounty_code":"E2DGjZRlwbY","county":"SAMBURU","county_code":25,"population":11622},"geometry":{"type":"MultiPolygon","coordinates":[[[[36.646934,1.396271],[36.646171,1.395719],[36.646346,1.395815],[36.647297,1.396357],[36.647752,1.39671],[36.647388,1.396477],[36.646934,1.396271]]],[[[36.638979,1.391408],[36.638845,1.391351],[36.638845,1.391351],[36.639255,1.391513],[36.639532,1.391664],[36.639295,1.391572],[36.638979,1.391408]]],[[[36.642298,1.393347],[36.642296,1.393313],[36.642662,1.393588],[36.64268,1.393602],[36.642428,1.393455],[36.642298,1.393347]]],[[[36.635092,1.389292],[36.635092,1.389128],[36.635132,1.389276],[36.635157,1.389369],[36.635093,1.389294],[36.635092,1.389292]]],[[[36.636215,1.390359],[36.636166,1.390309],[36.63653,1.390526],[36.636215,1.390359]]]]}},{"type":"Feature","properties":{"ward_code":"kNhuVMT4NIA","ward":"Masige West Ward","subcounty":"Bobasi Sub County","subcounty_code":"cooDDG3Lh3A","county":"Kisii","county_code":45,"population":18492},"geometry":{"type":"Polygon","coordinates":[[[34.809444,-0.87128],[34.809445,-0.87128],[34.80945,-0.871264],[34.809444,-0.87128]]]}},{"type":"Feature","properties":{"ward_code":"u15fCmBOYHT","ward":"Bassi Bogetaorio Ward","subcounty":"Bobasi Sub County","subcounty_code":"cooDDG3Lh3A","county":"Kisii","county_code":45,"population":34166},"geometry":{"type":"Polygon","coordinates":[[[34.850353,-0.888434],[34.850365,-0.888443],[34.850343,-0.888418],[34.850353,-0.888434]]]}},{"type":"Feature","properties":{"ward_code":"kpL4HsQ7YZ5","ward":"Sokoke Ward","subcounty":"Ganze Sub County","subcounty_code":"x7qUMtZZvo9","county":"Kilifi","county_code":3,"population":43543},"geometry":{"type":"Polygon","coordinates":[[[39.772778,-3.246489],[39.772791,-3.246637],[39.772823,-3.246612],[39.772778,-3.246489]]]}},{"type":"Feature","properties":{"ward_code":"nResMsI1yRw","ward":"Garashi Ward","subcounty":"Magarini Sub County","subcounty_code":"KMWrMZrlO5u","county":"Kilifi","county_code":3,"population":25781},"geometry":{"type":"Polygon","coordinates":[[[39.908379,-3.16439],[39.90834,-3.164433],[39.908353,-3.164433],[39.908379,-3.16439]]]}},{"type":"Feature","properties":{"ward_code":"tZfKaFDQcdW","ward":"Makina Ward","subcounty":"Kibra  Sub County","subcounty_code":"LO5he3DtiFG","county":"Nairobi","county_code":47,"population":35028},"geometry":{"type":"Polygon","coordinates":[[[36.792844,-1.309447],[36.79285,-1.309448],[36.79285,-1.309447],[36.792844,-1.309447]]]}}]}