{"type":"FeatureCollection","name":"kenya_constituencies","crs":{"type":"name","properties":{"name":"urn:ogc:def:crs:OGC:1.3:CRS84"}},"features":[{"type":"Feature","properties":{"constituency_code":10,"constituency":"KINANGO","county":"KWALE","county_code":2},"geometry":{"type":"Polygon","coordinates":[[[39.545742,-3.99394],[39.545314,-3.996443],[39.547512,-3.995954],[39.545742,-3.99394]]]}},{"type":"Feature","properties":{"constituency_code":11,"constituency":"KILIFI NORTH","county":"KILIFI","county_code":3},"geometry":{"type":"MultiPolygon","coordinates":[[[[39.776943,-3.604963],[39.77914,-3.60832],[39.779567,-3.601423],[39.778713,-3.599043],[39.779323,-3.59593],[39.779567,-3.592329],[39.777126,-3.591474],[39.771511,-3.590559],[39.772731,-3.592939],[39.774318,-3.594953],[39.774135,-3.598432],[39.775112,-3.601667],[39.776943,-3.604963]]],[[[39.78915,-3.577375],[39.790126,-3.573469],[39.787319,-3.57115],[39.786342,-3.567365],[39.787136,-3.564558],[39.783962,-3.561872],[39.783107,-3.564436],[39.783962,-3.567732],[39.783535,-3.571638],[39.785366,-3.573957],[39.787136,-3.575849],[39.78915,-3.577375]]],[[[39.778713,-3.587324],[39.780361,-3.590132],[39.782924,-3.587446],[39.78152,-3.584333],[39.777309,-3.584944],[39.778713,-3.587324]]],[[[39.849147,-3.680464],[39.852565,-3.682173],[39.855739,-3.682417],[39.855922,-3.680525],[39.852565,-3.680342],[39.849147,-3.680464]]],[[[39.838955,-3.684858],[39.839748,-3.681623],[39.837368,-3.682661],[39.835964,-3.685224],[39.838955,-3.684858]]],[[[39.78915,-3.577375],[39.788112,-3.580061],[39.790554,-3.581648],[39.790554,-3.579634],[39.78915,-3.577375]]],[[[39.840114,-3.676924],[39.840114,-3.679365],[39.842311,-3.677839],[39.840114,-3.676924]]]]}},{"type":"Feature","properties":{"constituency_code":12,"constituency":"KILIFI SOUTH","county":"KILIFI","county_code":3},"geometry":{"type":"Polygon","coordinates":[[[39.716518,-3.898542],[39.715114,-3.901045],[39.712124,-3.900556],[39.70956,-3.902632],[39.709743,-3.90666],[39.711757,-3.910139],[39.714565,-3.907636],[39.715908,-3.905134],[39.717128,-3.901655],[39.716518,-3.898542]]]}},{"type":"Feature","properties":{"constituency_code":148,"constituency":"MARAKWET WEST","county":"WEST POKOT","county_code":24},"geometry":{"type":"Polygon","coordinates":[[[35.472316,1.011736],[35.469143,1.012346],[35.468959,1.015337],[35.466518,1.017168],[35.46371,1.017351],[35.461147,1.01314],[35.459316,1.01076],[35.461757,1.007952],[35.462124,1.005572],[35.464565,1.004351],[35.466945,1.004961],[35.468959,1.006365],[35.467739,1.008745],[35.472316,1.011736]]]}},{"type":"Feature","properties":{"constituency_code":182,"constituency":"NAROK WEST","county":"NAROK","county_code":33},"geometry":{"type":"Polygon","coordinates":[[[35.350551,-0.974653],[35.348354,-0.976667],[35.351162,-0.978865],[35.350551,-0.974653]]]}},{"type":"Feature","properties":{"constituency_code":83,"constituency":"MBOONI","county":"MAKUENI","county_code":17},"geometry":{"type":"Polygon","coordinates":[[[37.65591,-1.756574],[37.656765,-1.754621],[37.65652,-1.750654],[37.65414,-1.751448],[37.65475,-1.754255],[37.65591,-1.756574]]]}},{"type":"Feature","properties":{"constituency_code":68,"constituency":"MWINGI WEST","county":"KITUI","county_code":15},"geometry":{"type":"Polygon","coordinates":[[[37.83395,-0.909345],[37.837124,-0.909834],[37.837124,-0.907942],[37.83395,-0.909345]],[[37.83395,-0.909345],[37.830959,-0.906172],[37.827907,-0.903669],[37.82455,-0.902632],[37.819912,-0.902449],[37.819118,-0.89897],[37.821132,-0.897749],[37.823146,-0.897016],[37.823757,-0.893171],[37.822353,-0.889143],[37.82156,-0.885664],[37.822353,-0.882673],[37.82455,-0.879316],[37.82632,-0.878218],[37.824916,-0.876264],[37.827114,-0.874861],[37.826931,-0.870771],[37.827724,-0.86833],[37.829738,-0.868147],[37.831936,-0.86656],[37.829738,-0.863264],[37.830532,-0.860151],[37.833156,-0.859663],[37.833767,-0.857771],[37.832363,-0.856245],[37.834926,-0.854719],[37.83694,-0.85417],[37.838344,-0.851545],[37.837551,-0.848615],[37.840908,-0.847273],[37.844753,-0.844343],[37.842556,-0.843122],[37.841945,-0.838545],[37.844143,-0.836775],[37.84695,-0.836164],[37.849331,-0.834822],[37.847561,-0.831648],[37.847927,-0.82353],[37.844753,-0.821272],[37.845729,-0.817365],[37.846157,-0.813825],[37.850124,-0.813154],[37.85635,-0.812422],[37.859951,-0.813948],[37.863918,-0.813825],[37.866115,-0.812666],[37.868557,-0.812666],[37.871364,-0.813276],[37.874111,-0.812116],[37.876308,-0.810469],[37.879116,-0.809126],[37.881923,-0.810163],[37.884548,-0.809675],[37.884914,-0.806745],[37.884365,-0.804121],[37.882717,-0.802168],[37.880764,-0.800276],[37.880336,-0.797834],[37.88113,-0.793745],[37.883754,-0.791548],[37.884121,-0.787947],[37.884914,-0.784468],[37.889553,-0.782759],[37.892116,-0.783735],[37.893337,-0.781355],[37.893337,-0.777265],[37.89291,-0.77397],[37.891933,-0.771467],[37.89236,-0.768843],[37.900112,-0.763838],[37.903164,-0.760847],[37.90414,-0.757917],[37.905361,-0.755476],[37.909755,-0.750776],[37.910915,-0.748335],[37.911708,-0.746015],[37.913112,-0.744673],[37.918544,-0.748274],[37.920925,-0.747724],[37.924343,-0.747846],[37.92715,-0.749861],[37.927944,-0.747053],[37.92715,-0.743269],[37.92892,-0.741743],[37.931911,-0.741926],[37.934353,-0.743574],[37.935146,-0.746748],[37.936367,-0.748945],[37.936916,-0.752058],[37.93832,-0.754255],[37.943935,-0.754072],[37.948513,-0.754438],[37.952724,-0.758161],[37.954738,-0.760969],[37.957546,-0.75987],[37.96072,-0.760969],[37.963527,-0.762556],[37.965541,-0.762068],[37.967556,-0.761152],[37.969509,-0.75987],[37.968349,-0.757368],[37.971523,-0.756819],[37.973354,-0.755964],[37.974941,-0.75395],[37.978359,-0.754133],[37.978542,-0.756758],[37.981166,-0.756941],[37.982509,-0.759443],[37.985744,-0.75865],[37.987941,-0.758772],[37.989956,-0.759626],[37.990322,-0.762251],[37.991115,-0.765119],[37.993312,-0.765425],[37.99551,-0.770124],[37.998317,-0.774336],[38.001308,-0.777143],[38.002346,-0.78105],[38.004543,-0.784773],[38.00552,-0.78874],[38.007534,-0.790815],[38.010158,-0.792036],[38.012966,-0.79405],[38.015163,-0.794966],[38.017116,-0.796675],[38.01913,-0.797529],[38.020534,-0.794844],[38.023952,-0.79582],[38.024135,-0.798261],[38.026149,-0.801069],[38.026332,-0.803266],[38.027309,-0.805342],[38.03091,-0.808332],[38.033718,-0.810041],[38.035915,-0.812361],[38.038112,-0.813764],[38.038967,-0.816572],[38.038356,-0.819441],[38.04153,-0.820722],[38.045131,-0.81883],[38.047329,-0.820722],[38.04916,-0.824324],[38.050563,-0.827741],[38.053554,-0.827375],[38.055935,-0.830122],[38.058132,-0.833357],[38.059108,-0.83647],[38.061123,-0.839338],[38.064357,-0.841841],[38.066738,-0.84477],[38.062709,-0.849531],[38.060939,-0.857038],[38.061123,-0.860029],[38.058559,-0.861067],[38.055141,-0.861616],[38.044765,-0.866621],[38.042141,-0.867536],[38.03915,-0.867964],[38.036159,-0.86772],[38.028713,-0.868269],[38.023525,-0.868818],[38.020534,-0.869673],[38.018337,-0.870771],[38.016567,-0.872358],[38.01675,-0.874739],[38.018764,-0.877424],[38.021755,-0.879743],[38.024562,-0.885237],[38.025539,-0.888044],[38.025722,-0.891157],[38.027736,-0.892744],[38.029323,-0.894819],[38.026149,-0.896833],[38.027309,-0.90074],[38.02975,-0.90373],[38.03152,-0.903852],[38.032314,-0.906965],[38.034145,-0.910871],[38.036953,-0.913862],[38.036525,-0.915632],[38.037136,-0.918074],[38.037563,-0.92143],[38.035549,-0.923628],[38.034938,-0.925825],[38.035549,-0.928572],[38.035732,-0.930952],[38.036525,-0.93376],[38.038967,-0.93553],[38.041164,-0.937666],[38.042507,-0.939619],[38.045131,-0.939436],[38.045131,-0.942427],[38.046108,-0.945967],[38.047145,-0.947676],[38.048549,-0.949324],[38.049953,-0.951643],[38.053127,-0.955366],[38.055141,-0.958235],[38.056545,-0.96092],[38.055935,-0.964765],[38.056911,-0.967024],[38.059536,-0.967573],[38.060756,-0.971052],[38.060329,-0.97563],[38.060146,-0.979719],[38.060939,-0.98332],[38.060329,-0.986738],[38.058742,-0.990339],[38.055935,-0.992048],[38.057521,-0.994917],[38.055507,-0.998457],[38.056118,-1.000837],[38.058742,-1.002241],[38.061733,-1.00334],[38.062709,-1.005476],[38.061367,-1.008039],[38.064907,-1.006758],[38.068508,-1.007246],[38.071926,-1.008833],[38.07156,-1.010969],[38.07394,-1.013044],[38.07571,-1.016767],[38.076931,-1.020246],[38.081142,-1.030622],[38.082729,-1.03697],[38.083156,-1.039839],[38.08395,-1.042951],[38.081325,-1.045149],[38.078518,-1.049421],[38.076137,-1.051374],[38.071315,-1.053816],[38.068935,-1.054121],[38.066921,-1.056623],[38.063137,-1.058332],[38.059108,-1.058149],[38.057521,-1.061567],[38.058315,-1.066145],[38.058742,-1.070539],[38.061367,-1.072859],[38.061367,-1.077253],[38.061916,-1.080427],[38.064357,-1.081526],[38.066311,-1.084333],[38.067714,-1.086958],[38.067714,-1.089338],[38.068325,-1.095564],[38.068325,-1.098371],[38.068752,-1.100141],[38.070522,-1.102766],[38.071926,-1.105635],[38.073513,-1.108137],[38.075954,-1.110639],[38.080349,-1.113447],[38.081325,-1.116865],[38.082119,-1.120466],[38.083339,-1.123823],[38.08572,-1.129438],[38.08633,-1.131636],[38.087917,-1.134016],[38.089931,-1.135542],[38.092739,-1.137251],[38.095119,-1.137373],[38.097561,-1.138838],[38.09872,-1.140364],[38.103359,-1.143232],[38.106716,-1.141767],[38.109523,-1.143171],[38.111721,-1.143965],[38.115139,-1.146833],[38.118557,-1.149153],[38.122158,-1.152449],[38.125759,-1.15312],[38.127529,-1.155561],[38.068325,-1.163252],[38.068935,-1.167524],[38.067714,-1.170637],[38.062709,-1.170637],[38.060329,-1.169538],[38.058315,-1.168928],[38.055507,-1.167768],[38.051357,-1.16667],[38.048549,-1.167951],[38.047145,-1.166426],[38.044765,-1.16612],[38.041347,-1.167463],[38.036953,-1.16844],[38.030117,-1.167768],[38.026149,-1.166548],[38.022548,-1.166548],[38.016567,-1.165022],[38.014553,-1.16374],[38.008144,-1.162275],[38.00552,-1.161421],[38.00613,-1.158247],[37.999111,-1.155317],[37.997951,-1.152449],[37.99496,-1.150068],[37.991359,-1.149458],[37.984523,-1.151472],[37.98196,-1.151533],[37.979335,-1.149946],[37.977749,-1.147444],[37.975551,-1.145674],[37.972316,-1.144758],[37.968715,-1.144758],[37.967128,-1.143049],[37.964565,-1.141645],[37.961757,-1.140241],[37.958767,-1.139753],[37.955532,-1.137739],[37.952114,-1.139143],[37.94955,-1.139326],[37.947353,-1.137129],[37.943508,-1.137434],[37.940761,-1.138227],[37.93832,-1.137068],[37.935146,-1.137434],[37.932155,-1.137129],[37.929714,-1.136335],[37.926723,-1.13603],[37.923915,-1.136762],[37.921352,-1.136518],[37.918544,-1.135725],[37.912563,-1.13487],[37.909938,-1.134565],[37.906337,-1.134626],[37.903164,-1.133161],[37.889309,-1.132246],[37.888332,-1.128645],[37.884731,-1.127058],[37.87936,-1.126325],[37.876308,-1.126936],[37.873134,-1.127973],[37.867336,-1.130354],[37.862758,-1.127119],[37.860744,-1.124555],[37.859768,-1.121137],[37.855922,-1.12303],[37.851528,-1.123335],[37.847927,-1.122846],[37.844326,-1.122724],[37.842311,-1.123762],[37.809353,-1.12364],[37.800563,-1.126325],[37.794521,-1.127424],[37.797512,-1.12425],[37.798732,-1.12187],[37.802517,-1.11894],[37.803127,-1.113935],[37.804958,-1.111555],[37.806728,-1.107649],[37.808559,-1.10063],[37.808742,-1.097517],[37.809719,-1.094343],[37.812526,-1.090864],[37.815334,-1.088117],[37.816738,-1.085554],[37.818935,-1.083052],[37.819912,-1.079573],[37.821132,-1.076643],[37.82156,-1.073835],[37.822963,-1.072676],[37.828334,-1.073225],[37.830715,-1.071455],[37.832546,-1.069258],[37.834743,-1.065962],[37.835964,-1.063642],[37.836757,-1.061262],[37.839138,-1.058332],[37.841945,-1.054426],[37.844753,-1.052961],[37.845913,-1.05052],[37.847316,-1.048445],[37.847561,-1.046247],[37.84872,-1.04405],[37.847561,-1.031416],[37.849514,-1.027571],[37.849941,-1.023725],[37.850307,-1.014753],[37.850917,-1.01164],[37.850734,-1.00926],[37.851345,-1.006574],[37.849758,-1.004255],[37.847927,-1.002119],[37.84695,-0.999128],[37.847744,-0.996626],[37.850551,-0.995222],[37.852321,-0.99156],[37.855312,-0.989057],[37.858913,-0.987837],[37.861354,-0.985334],[37.863124,-0.986128],[37.865749,-0.984724],[37.865139,-0.983137],[37.863918,-0.981428],[37.867519,-0.980146],[37.868312,-0.976118],[37.866359,-0.975324],[37.863735,-0.975019],[37.863918,-0.971418],[37.860927,-0.970564],[37.858913,-0.969465],[37.857753,-0.968244],[37.854335,-0.968916],[37.84872,-0.967756],[37.845729,-0.966657],[37.851955,-0.962629],[37.854335,-0.96385],[37.854152,-0.960432],[37.852749,-0.959272],[37.850307,-0.955915],[37.851711,-0.953169],[37.850551,-0.951032],[37.847927,-0.950056],[37.847744,-0.947737],[37.84872,-0.945661],[37.847561,-0.943647],[37.851162,-0.943647],[37.853115,-0.940473],[37.850551,-0.937971],[37.852138,-0.935835],[37.847561,-0.931257],[37.845119,-0.930525],[37.843166,-0.930158],[37.844753,-0.926924],[37.842128,-0.926069],[37.842311,-0.922956],[37.83871,-0.922468],[37.839138,-0.916059],[37.838955,-0.912641],[37.836757,-0.913374],[37.83456,-0.914839],[37.83395,-0.912519],[37.83395,-0.909345]]]}}]}